CCSDS_OMM_VERS = 2.0
CREATION_DATE  = 
ORIGINATOR     = 

OBJECT_NAME    = STARLINK-36766
OBJECT_ID      = 2026-042A
CENTER_NAME    = EARTH
REF_FRAME      = TEME
TIME_SYSTEM    = UTC
MEAN_ELEMENT_THEORY = SGP/SGP4

EPOCH          = 2026-03-24T07:11:54.123936
MEAN_MOTION    = 15.81025834
ECCENTRICITY   = .00010829
INCLINATION    = 53.1580
RA_OF_ASC_NODE = 121.5577
ARG_OF_PERICENTER = 119.3410
MEAN_ANOMALY   = 240.7721

EPHEMERIS_TYPE = 0
CLASSIFICATION_TYPE = U
NORAD_CAT_ID   = 68069
ELEMENT_SET_NO = 999
REV_AT_EPOCH   = 439
BSTAR          = .14788806E-2
MEAN_MOTION_DOT = .303823E-2
MEAN_MOTION_DDOT = 0

CCSDS_OMM_VERS = 2.0
CREATION_DATE  = 
ORIGINATOR     = 

OBJECT_NAME    = STARLINK-36823
OBJECT_ID      = 2026-042B
CENTER_NAME    = EARTH
REF_FRAME      = TEME
TIME_SYSTEM    = UTC
MEAN_ELEMENT_THEORY = SGP/SGP4

EPOCH          = 2026-03-24T05:39:47.172096
MEAN_MOTION    = 15.81034151
ECCENTRICITY   = .00012647
INCLINATION    = 53.1576
RA_OF_ASC_NODE = 121.8686
ARG_OF_PERICENTER = 61.5157
MEAN_ANOMALY   = 298.5993

EPHEMERIS_TYPE = 0
CLASSIFICATION_TYPE = U
NORAD_CAT_ID   = 68070
ELEMENT_SET_NO = 999
REV_AT_EPOCH   = 438
BSTAR          = .14960374E-2
MEAN_MOTION_DOT = .307609E-2
MEAN_MOTION_DDOT = 0

CCSDS_OMM_VERS = 2.0
CREATION_DATE  = 
ORIGINATOR     = 

OBJECT_NAME    = STARLINK-36970
OBJECT_ID      = 2026-042C
CENTER_NAME    = EARTH
REF_FRAME      = TEME
TIME_SYSTEM    = UTC
MEAN_ELEMENT_THEORY = SGP/SGP4

EPOCH          = 2026-03-24T05:37:38.009280
MEAN_MOTION    = 15.80992708
ECCENTRICITY   = .00013312
INCLINATION    = 53.1579
RA_OF_ASC_NODE = 121.8589
ARG_OF_PERICENTER = 123.1245
MEAN_ANOMALY   = 236.9905

EPHEMERIS_TYPE = 0
CLASSIFICATION_TYPE = U
NORAD_CAT_ID   = 68071
ELEMENT_SET_NO = 999
REV_AT_EPOCH   = 438
BSTAR          = .12979624E-2
MEAN_MOTION_DOT = .26495E-2
MEAN_MOTION_DDOT = 0

CCSDS_OMM_VERS = 2.0
CREATION_DATE  = 
ORIGINATOR     = 

OBJECT_NAME    = STARLINK-36972
OBJECT_ID      = 2026-042D
CENTER_NAME    = EARTH
REF_FRAME      = TEME
TIME_SYSTEM    = UTC
MEAN_ELEMENT_THEORY = SGP/SGP4

EPOCH          = 2026-03-24T05:38:41.728416
MEAN_MOTION    = 15.80939477
ECCENTRICITY   = .00019606
INCLINATION    = 53.1575
RA_OF_ASC_NODE = 121.8642
ARG_OF_PERICENTER = 61.6831
MEAN_ANOMALY   = 298.4389

EPHEMERIS_TYPE = 0
CLASSIFICATION_TYPE = U
NORAD_CAT_ID   = 68072
ELEMENT_SET_NO = 999
REV_AT_EPOCH   = 438
BSTAR          = .50528689E-3
MEAN_MOTION_DOT = .100509E-2
MEAN_MOTION_DDOT = 0

CCSDS_OMM_VERS = 2.0
CREATION_DATE  = 
ORIGINATOR     = 

OBJECT_NAME    = STARLINK-37074
OBJECT_ID      = 2026-042E
CENTER_NAME    = EARTH
REF_FRAME      = TEME
TIME_SYSTEM    = UTC
MEAN_ELEMENT_THEORY = SGP/SGP4

EPOCH          = 2026-03-24T05:36:32.828256
MEAN_MOTION    = 15.80964260
ECCENTRICITY   = .00011338
INCLINATION    = 53.1574
RA_OF_ASC_NODE = 121.8540
ARG_OF_PERICENTER = 140.2728
MEAN_ANOMALY   = 219.8378

EPHEMERIS_TYPE = 0
CLASSIFICATION_TYPE = U
NORAD_CAT_ID   = 68073
ELEMENT_SET_NO = 999
REV_AT_EPOCH   = 438
BSTAR          = .92924715E-3
MEAN_MOTION_DOT = .187529E-2
MEAN_MOTION_DDOT = 0

CCSDS_OMM_VERS = 2.0
CREATION_DATE  = 
ORIGINATOR     = 

OBJECT_NAME    = STARLINK-37045
OBJECT_ID      = 2026-042F
CENTER_NAME    = EARTH
REF_FRAME      = TEME
TIME_SYSTEM    = UTC
MEAN_ELEMENT_THEORY = SGP/SGP4

EPOCH          = 2026-03-24T06:00:02.000160
MEAN_MOTION    = 15.75341696
ECCENTRICITY   = .0001678
INCLINATION    = 53.1593
RA_OF_ASC_NODE = 121.9000
ARG_OF_PERICENTER = 89.8469
MEAN_ANOMALY   = 300.1332

EPHEMERIS_TYPE = 0
CLASSIFICATION_TYPE = U
NORAD_CAT_ID   = 68074
ELEMENT_SET_NO = 999
REV_AT_EPOCH   = 439
BSTAR          = -.95736919E-3
MEAN_MOTION_DOT = -.145559E-2
MEAN_MOTION_DDOT = 0

CCSDS_OMM_VERS = 2.0
CREATION_DATE  = 
ORIGINATOR     = 

OBJECT_NAME    = STARLINK-37026
OBJECT_ID      = 2026-042G
CENTER_NAME    = EARTH
REF_FRAME      = TEME
TIME_SYSTEM    = UTC
MEAN_ELEMENT_THEORY = SGP/SGP4

EPOCH          = 2026-03-24T07:37:20.747136
MEAN_MOTION    = 15.75286692
ECCENTRICITY   = .00008686
INCLINATION    = 53.1573
RA_OF_ASC_NODE = 121.6736
ARG_OF_PERICENTER = 105.3332
MEAN_ANOMALY   = 254.7784

EPHEMERIS_TYPE = 0
CLASSIFICATION_TYPE = U
NORAD_CAT_ID   = 68075
ELEMENT_SET_NO = 999
REV_AT_EPOCH   = 439
BSTAR          = .6020707E-3
MEAN_MOTION_DOT = .92862E-3
MEAN_MOTION_DDOT = 0

CCSDS_OMM_VERS = 2.0
CREATION_DATE  = 
ORIGINATOR     = 

OBJECT_NAME    = STARLINK-37023
OBJECT_ID      = 2026-042H
CENTER_NAME    = EARTH
REF_FRAME      = TEME
TIME_SYSTEM    = UTC
MEAN_ELEMENT_THEORY = SGP/SGP4

EPOCH          = 2026-03-24T07:29:52.366560
MEAN_MOTION    = 15.75318254
ECCENTRICITY   = .00015476
INCLINATION    = 53.1579
RA_OF_ASC_NODE = 121.6385
ARG_OF_PERICENTER = 86.6939
MEAN_ANOMALY   = 273.4258

EPHEMERIS_TYPE = 0
CLASSIFICATION_TYPE = U
NORAD_CAT_ID   = 68076
ELEMENT_SET_NO = 999
REV_AT_EPOCH   = 439
BSTAR          = .10404375E-2
MEAN_MOTION_DOT = .162509E-2
MEAN_MOTION_DDOT = 0

CCSDS_OMM_VERS = 2.0
CREATION_DATE  = 
ORIGINATOR     = 

OBJECT_NAME    = STARLINK-37036
OBJECT_ID      = 2026-042J
CENTER_NAME    = EARTH
REF_FRAME      = TEME
TIME_SYSTEM    = UTC
MEAN_ELEMENT_THEORY = SGP/SGP4

EPOCH          = 2026-03-24T07:30:20.706624
MEAN_MOTION    = 15.75324437
ECCENTRICITY   = .00018055
INCLINATION    = 53.1574
RA_OF_ASC_NODE = 121.6404
ARG_OF_PERICENTER = 131.8766
MEAN_ANOMALY   = 228.2409

EPHEMERIS_TYPE = 0
CLASSIFICATION_TYPE = U
NORAD_CAT_ID   = 68077
ELEMENT_SET_NO = 999
REV_AT_EPOCH   = 439
BSTAR          = .10033196E-2
MEAN_MOTION_DOT = .156623E-2
MEAN_MOTION_DDOT = 0

CCSDS_OMM_VERS = 2.0
CREATION_DATE  = 
ORIGINATOR     = 

OBJECT_NAME    = STARLINK-36973
OBJECT_ID      = 2026-042K
CENTER_NAME    = EARTH
REF_FRAME      = TEME
TIME_SYSTEM    = UTC
MEAN_ELEMENT_THEORY = SGP/SGP4

EPOCH          = 2026-03-24T05:30:03.561696
MEAN_MOTION    = 15.81042723
ECCENTRICITY   = .00008859
INCLINATION    = 53.1576
RA_OF_ASC_NODE = 121.8233
ARG_OF_PERICENTER = 111.4976
MEAN_ANOMALY   = 248.6142

EPHEMERIS_TYPE = 0
CLASSIFICATION_TYPE = U
NORAD_CAT_ID   = 68078
ELEMENT_SET_NO = 999
REV_AT_EPOCH   = 438
BSTAR          = .15766617E-2
MEAN_MOTION_DOT = .325022E-2
MEAN_MOTION_DDOT = 0

CCSDS_OMM_VERS = 2.0
CREATION_DATE  = 
ORIGINATOR     = 

OBJECT_NAME    = STARLINK-37063
OBJECT_ID      = 2026-042L
CENTER_NAME    = EARTH
REF_FRAME      = TEME
TIME_SYSTEM    = UTC
MEAN_ELEMENT_THEORY = SGP/SGP4

EPOCH          = 2026-03-24T07:02:10.750272
MEAN_MOTION    = 15.80965064
ECCENTRICITY   = .00008444
INCLINATION    = 53.1577
RA_OF_ASC_NODE = 121.5113
ARG_OF_PERICENTER = 114.1502
MEAN_ANOMALY   = 245.9609

EPHEMERIS_TYPE = 0
CLASSIFICATION_TYPE = U
NORAD_CAT_ID   = 68079
ELEMENT_SET_NO = 999
REV_AT_EPOCH   = 439
BSTAR          = .8932842E-3
MEAN_MOTION_DOT = .180094E-2
MEAN_MOTION_DDOT = 0

CCSDS_OMM_VERS = 2.0
CREATION_DATE  = 
ORIGINATOR     = 

OBJECT_NAME    = STARLINK-37051
OBJECT_ID      = 2026-042M
CENTER_NAME    = EARTH
REF_FRAME      = TEME
TIME_SYSTEM    = UTC
MEAN_ELEMENT_THEORY = SGP/SGP4

EPOCH          = 2026-03-24T06:59:15.575136
MEAN_MOTION    = 15.79580365
ECCENTRICITY   = .00015026
INCLINATION    = 53.1581
RA_OF_ASC_NODE = 121.4974
ARG_OF_PERICENTER = 163.4300
MEAN_ANOMALY   = 196.6771

EPHEMERIS_TYPE = 0
CLASSIFICATION_TYPE = U
NORAD_CAT_ID   = 68080
ELEMENT_SET_NO = 999
REV_AT_EPOCH   = 439
BSTAR          = -.5154037E-2
MEAN_MOTION_DOT = -.868055E-2
MEAN_MOTION_DDOT = 0

CCSDS_OMM_VERS = 2.0
CREATION_DATE  = 
ORIGINATOR     = 

OBJECT_NAME    = STARLINK-37066
OBJECT_ID      = 2026-042N
CENTER_NAME    = EARTH
REF_FRAME      = TEME
TIME_SYSTEM    = UTC
MEAN_ELEMENT_THEORY = SGP/SGP4

EPOCH          = 2026-03-24T06:00:02.000160
MEAN_MOTION    = 15.75364204
ECCENTRICITY   = .00016974
INCLINATION    = 53.1597
RA_OF_ASC_NODE = 121.8433
ARG_OF_PERICENTER = 80.6781
MEAN_ANOMALY   = 336.9045

EPHEMERIS_TYPE = 0
CLASSIFICATION_TYPE = U
NORAD_CAT_ID   = 68081
ELEMENT_SET_NO = 999
REV_AT_EPOCH   = 439
BSTAR          = -.1363019E-2
MEAN_MOTION_DOT = -.205719E-2
MEAN_MOTION_DDOT = 0

CCSDS_OMM_VERS = 2.0
CREATION_DATE  = 
ORIGINATOR     = 

OBJECT_NAME    = STARLINK-37054
OBJECT_ID      = 2026-042P
CENTER_NAME    = EARTH
REF_FRAME      = TEME
TIME_SYSTEM    = UTC
MEAN_ELEMENT_THEORY = SGP/SGP4

EPOCH          = 2026-03-24T06:57:51.319584
MEAN_MOTION    = 15.80996438
ECCENTRICITY   = .00012597
INCLINATION    = 53.1576
RA_OF_ASC_NODE = 121.4913
ARG_OF_PERICENTER = 72.6898
MEAN_ANOMALY   = 287.4263

EPHEMERIS_TYPE = 0
CLASSIFICATION_TYPE = U
NORAD_CAT_ID   = 68082
ELEMENT_SET_NO = 999
REV_AT_EPOCH   = 439
BSTAR          = .11747744E-2
MEAN_MOTION_DOT = .239052E-2
MEAN_MOTION_DDOT = 0

CCSDS_OMM_VERS = 2.0
CREATION_DATE  = 
ORIGINATOR     = 

OBJECT_NAME    = STARLINK-37065
OBJECT_ID      = 2026-042Q
CENTER_NAME    = EARTH
REF_FRAME      = TEME
TIME_SYSTEM    = UTC
MEAN_ELEMENT_THEORY = SGP/SGP4

EPOCH          = 2026-03-24T07:23:20.122656
MEAN_MOTION    = 15.75325865
ECCENTRICITY   = .00009791
INCLINATION    = 53.1585
RA_OF_ASC_NODE = 121.6081
ARG_OF_PERICENTER = 101.0011
MEAN_ANOMALY   = 259.1120

EPHEMERIS_TYPE = 0
CLASSIFICATION_TYPE = U
NORAD_CAT_ID   = 68083
ELEMENT_SET_NO = 999
REV_AT_EPOCH   = 439
BSTAR          = .11893373E-2
MEAN_MOTION_DOT = .186451E-2
MEAN_MOTION_DDOT = 0

